sat39915
1 39915U 94029AFN 20046.76346977  .00001267  00000-0  42847-4 0  9997
2 39915  82.0016  58.6674 0106920  93.8547 267.4920 15.24107380951754
